[{"OBJECT_NAME":"STARLINK-30429","OBJECT_ID":"2023-144N","EPOCH":"2026-03-09T00:24:54.111744","MEAN_MOTION":15.26759403,"ECCENTRICITY":0.00012155,"INCLINATION":43.0056,"RA_OF_ASC_NODE":289.0794,"ARG_OF_PERICENTER":320.7626,"MEAN_ANOMALY":39.3137,"EPHEMERIS_TYPE":0,"CLASSIFICATION_TYPE":"U","NORAD_CAT_ID":57876,"ELEMENT_SET_NO":999,"REV_AT_EPOCH":13753,"BSTAR":0.00018839136,"MEAN_MOTION_DOT":4.8e-5,"MEAN_MOTION_DDOT":0},{"OBJECT_NAME":"COSMOS 970 DEB","OBJECT_ID":"1977-121BY","EPOCH":"2026-03-08T00:28:08.036544","MEAN_MOTION":15.38602545,"ECCENTRICITY":0.01254623,"INCLINATION":65.7647,"RA_OF_ASC_NODE":81.4591,"ARG_OF_PERICENTER":84.8291,"MEAN_ANOMALY":276.7158,"EPHEMERIS_TYPE":0,"CLASSIFICATION_TYPE":"U","NORAD_CAT_ID":20327,"ELEMENT_SET_NO":999,"REV_AT_EPOCH":74479,"BSTAR":0.0016623992,"MEAN_MOTION_DOT":0.00084425,"MEAN_MOTION_DDOT":0}]
